CCSDS_OMM_VERS = 2.0
CREATION_DATE  = 
ORIGINATOR     = 

OBJECT_NAME    = 1998-067XT
OBJECT_ID      = 1998-067XT
CENTER_NAME    = EARTH
REF_FRAME      = TEME
TIME_SYSTEM    = UTC
MEAN_ELEMENT_THEORY = SGP/SGP4

EPOCH          = 2025-12-06T22:15:35.290656
MEAN_MOTION    = 15.50498848
ECCENTRICITY   = .00052114
INCLINATION    = 51.6299
RA_OF_ASC_NODE = 171.2284
ARG_OF_PERICENTER = 194.7186
MEAN_ANOMALY   = 165.3652

EPHEMERIS_TYPE = 0
CLASSIFICATION_TYPE = U
NORAD_CAT_ID   = 66907
ELEMENT_SET_NO = 999
REV_AT_EPOCH   = 71
BSTAR          = .1226899E-2
MEAN_MOTION_DOT = .71486E-3
MEAN_MOTION_DDOT = 0

CCSDS_OMM_VERS = 2.0
CREATION_DATE  = 
ORIGINATOR     = 

OBJECT_NAME    = 1998-067XU
OBJECT_ID      = 1998-067XU
CENTER_NAME    = EARTH
REF_FRAME      = TEME
TIME_SYSTEM    = UTC
MEAN_ELEMENT_THEORY = SGP/SGP4

EPOCH          = 2025-12-06T22:15:23.816736
MEAN_MOTION    = 15.50551079
ECCENTRICITY   = .00054036
INCLINATION    = 51.6296
RA_OF_ASC_NODE = 171.2272
ARG_OF_PERICENTER = 194.2976
MEAN_ANOMALY   = 165.7861

EPHEMERIS_TYPE = 0
CLASSIFICATION_TYPE = U
NORAD_CAT_ID   = 66908
ELEMENT_SET_NO = 999
REV_AT_EPOCH   = 71
BSTAR          = .11470427E-2
MEAN_MOTION_DOT = .66891E-3
MEAN_MOTION_DDOT = 0

CCSDS_OMM_VERS = 2.0
CREATION_DATE  = 
ORIGINATOR     = 

OBJECT_NAME    = SILVERSAT
OBJECT_ID      = 1998-067XV
CENTER_NAME    = EARTH
REF_FRAME      = TEME
TIME_SYSTEM    = UTC
MEAN_ELEMENT_THEORY = SGP/SGP4

EPOCH          = 2025-12-06T22:15:20.702880
MEAN_MOTION    = 15.50597561
ECCENTRICITY   = .000527
INCLINATION    = 51.6296
RA_OF_ASC_NODE = 171.2269
ARG_OF_PERICENTER = 195.2030
MEAN_ANOMALY   = 164.8802

EPHEMERIS_TYPE = 0
CLASSIFICATION_TYPE = U
NORAD_CAT_ID   = 66909
ELEMENT_SET_NO = 999
REV_AT_EPOCH   = 71
BSTAR          = .13781016E-2
MEAN_MOTION_DOT = .80732E-3
MEAN_MOTION_DDOT = 0

CCSDS_OMM_VERS = 2.0
CREATION_DATE  = 
ORIGINATOR     = 

OBJECT_NAME    = 1998-067XW
OBJECT_ID      = 1998-067XW
CENTER_NAME    = EARTH
REF_FRAME      = TEME
TIME_SYSTEM    = UTC
MEAN_ELEMENT_THEORY = SGP/SGP4

EPOCH          = 2025-12-06T22:14:11.406624
MEAN_MOTION    = 15.50834076
ECCENTRICITY   = .00061612
INCLINATION    = 51.6295
RA_OF_ASC_NODE = 171.2216
ARG_OF_PERICENTER = 180.8315
MEAN_ANOMALY   = 179.2665

EPHEMERIS_TYPE = 0
CLASSIFICATION_TYPE = U
NORAD_CAT_ID   = 66910
ELEMENT_SET_NO = 999
REV_AT_EPOCH   = 71
BSTAR          = .1191381E-2
MEAN_MOTION_DOT = .70242E-3
MEAN_MOTION_DDOT = 0

CCSDS_OMM_VERS = 2.0
CREATION_DATE  = 
ORIGINATOR     = 

OBJECT_NAME    = 1998-067XX
OBJECT_ID      = 1998-067XX
CENTER_NAME    = EARTH
REF_FRAME      = TEME
TIME_SYSTEM    = UTC
MEAN_ELEMENT_THEORY = SGP/SGP4

EPOCH          = 2025-12-06T22:14:02.509152
MEAN_MOTION    = 15.50921454
ECCENTRICITY   = .00060774
INCLINATION    = 51.6294
RA_OF_ASC_NODE = 171.2209
ARG_OF_PERICENTER = 181.4841
MEAN_ANOMALY   = 178.6131

EPHEMERIS_TYPE = 0
CLASSIFICATION_TYPE = U
NORAD_CAT_ID   = 66911
ELEMENT_SET_NO = 999
REV_AT_EPOCH   = 70
BSTAR          = .13962255E-2
MEAN_MOTION_DOT = .82787E-3
MEAN_MOTION_DDOT = 0

CCSDS_OMM_VERS = 2.0
CREATION_DATE  = 
ORIGINATOR     = 

OBJECT_NAME    = 1998-067XY
OBJECT_ID      = 1998-067XY
CENTER_NAME    = EARTH
REF_FRAME      = TEME
TIME_SYSTEM    = UTC
MEAN_ELEMENT_THEORY = SGP/SGP4

EPOCH          = 2025-12-06T19:10:11.930016
MEAN_MOTION    = 15.50363521
ECCENTRICITY   = .00052356
INCLINATION    = 51.6299
RA_OF_ASC_NODE = 171.8684
ARG_OF_PERICENTER = 194.0341
MEAN_ANOMALY   = 166.0503

EPHEMERIS_TYPE = 0
CLASSIFICATION_TYPE = U
NORAD_CAT_ID   = 66912
ELEMENT_SET_NO = 999
REV_AT_EPOCH   = 68
BSTAR          = .11553511E-2
MEAN_MOTION_DOT = .66928E-3
MEAN_MOTION_DDOT = 0

CCSDS_OMM_VERS = 2.0
CREATION_DATE  = 
ORIGINATOR     = 

OBJECT_NAME    = 2025-284A
OBJECT_ID      = 2025-284A
CENTER_NAME    = EARTH
REF_FRAME      = TEME
TIME_SYSTEM    = UTC
MEAN_ELEMENT_THEORY = SGP/SGP4

EPOCH          = 2025-12-05T19:30:25.528608
MEAN_MOTION    = 15.20033669
ECCENTRICITY   = .00128266
INCLINATION    = 80.4023
RA_OF_ASC_NODE = 138.5488
ARG_OF_PERICENTER = 252.3263
MEAN_ANOMALY   = 107.6565

EPHEMERIS_TYPE = 0
CLASSIFICATION_TYPE = U
NORAD_CAT_ID   = 66913
ELEMENT_SET_NO = 999
REV_AT_EPOCH   = 7
BSTAR          = .14555981E-3
MEAN_MOTION_DOT = .3163E-4
MEAN_MOTION_DDOT = 0

CCSDS_OMM_VERS = 2.0
CREATION_DATE  = 
ORIGINATOR     = 

OBJECT_NAME    = HULIANWANG DIGUI 14A
OBJECT_ID      = 2025-285A
CENTER_NAME    = EARTH
REF_FRAME      = TEME
TIME_SYSTEM    = UTC
MEAN_ELEMENT_THEORY = SGP/SGP4

EPOCH          = 2025-12-06T08:58:45.410016
MEAN_MOTION    = 14.06225102
ECCENTRICITY   = .00087698
INCLINATION    = 49.9887
RA_OF_ASC_NODE = 143.2276
ARG_OF_PERICENTER = 217.1051
MEAN_ANOMALY   = 142.9249

EPHEMERIS_TYPE = 0
CLASSIFICATION_TYPE = U
NORAD_CAT_ID   = 66915
ELEMENT_SET_NO = 999
REV_AT_EPOCH   = 1
BSTAR          = .18511052E-4
MEAN_MOTION_DOT = -.122E-5
MEAN_MOTION_DDOT = 0

CCSDS_OMM_VERS = 2.0
CREATION_DATE  = 
ORIGINATOR     = 

OBJECT_NAME    = HULIANWANG DIGUI 14B
OBJECT_ID      = 2025-285B
CENTER_NAME    = EARTH
REF_FRAME      = TEME
TIME_SYSTEM    = UTC
MEAN_ELEMENT_THEORY = SGP/SGP4

EPOCH          = 2025-12-06T12:23:28.538592
MEAN_MOTION    = 14.05953890
ECCENTRICITY   = .0008093
INCLINATION    = 50.0119
RA_OF_ASC_NODE = 142.6984
ARG_OF_PERICENTER = 262.9615
MEAN_ANOMALY   = 97.0370

EPHEMERIS_TYPE = 0
CLASSIFICATION_TYPE = U
NORAD_CAT_ID   = 66916
ELEMENT_SET_NO = 999
REV_AT_EPOCH   = 3
BSTAR          = .17671E-4
MEAN_MOTION_DOT = -.123E-5
MEAN_MOTION_DDOT = 0

CCSDS_OMM_VERS = 2.0
CREATION_DATE  = 
ORIGINATOR     = 

OBJECT_NAME    = HULIANWANG DIGUI 14C
OBJECT_ID      = 2025-285C
CENTER_NAME    = EARTH
REF_FRAME      = TEME
TIME_SYSTEM    = UTC
MEAN_ELEMENT_THEORY = SGP/SGP4

EPOCH          = 2025-12-07T08:51:36.252576
MEAN_MOTION    = 14.06037228
ECCENTRICITY   = .0007427
INCLINATION    = 50.0027
RA_OF_ASC_NODE = 139.1984
ARG_OF_PERICENTER = 267.8822
MEAN_ANOMALY   = 92.1233

EPHEMERIS_TYPE = 0
CLASSIFICATION_TYPE = U
NORAD_CAT_ID   = 66917
ELEMENT_SET_NO = 999
REV_AT_EPOCH   = 15
BSTAR          = -.91018E-5
MEAN_MOTION_DOT = -.167E-5
MEAN_MOTION_DDOT = 0

CCSDS_OMM_VERS = 2.0
CREATION_DATE  = 
ORIGINATOR     = 

OBJECT_NAME    = HULIANWANG DIGUI 14D
OBJECT_ID      = 2025-285D
CENTER_NAME    = EARTH
REF_FRAME      = TEME
TIME_SYSTEM    = UTC
MEAN_ELEMENT_THEORY = SGP/SGP4

EPOCH          = 2025-12-07T08:51:29.623968
MEAN_MOTION    = 14.06162588
ECCENTRICITY   = .0006355
INCLINATION    = 50.0039
RA_OF_ASC_NODE = 139.1980
ARG_OF_PERICENTER = 263.3458
MEAN_ANOMALY   = 96.6725

EPHEMERIS_TYPE = 0
CLASSIFICATION_TYPE = U
NORAD_CAT_ID   = 66918
ELEMENT_SET_NO = 999
REV_AT_EPOCH   = 15
BSTAR          = .90209E-5
MEAN_MOTION_DOT = -.137E-5
MEAN_MOTION_DDOT = 0

CCSDS_OMM_VERS = 2.0
CREATION_DATE  = 
ORIGINATOR     = 

OBJECT_NAME    = HULIANWANG DIGUI 14E
OBJECT_ID      = 2025-285E
CENTER_NAME    = EARTH
REF_FRAME      = TEME
TIME_SYSTEM    = UTC
MEAN_ELEMENT_THEORY = SGP/SGP4

EPOCH          = 2025-12-07T08:51:27.135648
MEAN_MOTION    = 14.06180797
ECCENTRICITY   = .000785
INCLINATION    = 50.0066
RA_OF_ASC_NODE = 139.1996
ARG_OF_PERICENTER = 273.8790
MEAN_ANOMALY   = 86.1218

EPHEMERIS_TYPE = 0
CLASSIFICATION_TYPE = U
NORAD_CAT_ID   = 66919
ELEMENT_SET_NO = 999
REV_AT_EPOCH   = 15
BSTAR          = .8853E-5
MEAN_MOTION_DOT = -.138E-5
MEAN_MOTION_DDOT = 0

CCSDS_OMM_VERS = 2.0
CREATION_DATE  = 
ORIGINATOR     = 

OBJECT_NAME    = HULIANWANG DIGUI 14F
OBJECT_ID      = 2025-285F
CENTER_NAME    = EARTH
REF_FRAME      = TEME
TIME_SYSTEM    = UTC
MEAN_ELEMENT_THEORY = SGP/SGP4

EPOCH          = 2025-12-07T08:51:19.917792
MEAN_MOTION    = 14.06303219
ECCENTRICITY   = .0005759
INCLINATION    = 50.0099
RA_OF_ASC_NODE = 139.2018
ARG_OF_PERICENTER = 271.0398
MEAN_ANOMALY   = 88.9848

EPHEMERIS_TYPE = 0
CLASSIFICATION_TYPE = U
NORAD_CAT_ID   = 66920
ELEMENT_SET_NO = 999
REV_AT_EPOCH   = 15
BSTAR          = .13039E-3
MEAN_MOTION_DOT = .64E-6
MEAN_MOTION_DDOT = 0

CCSDS_OMM_VERS = 2.0
CREATION_DATE  = 
ORIGINATOR     = 

OBJECT_NAME    = HULIANWANG DIGUI 14G
OBJECT_ID      = 2025-285G
CENTER_NAME    = EARTH
REF_FRAME      = TEME
TIME_SYSTEM    = UTC
MEAN_ELEMENT_THEORY = SGP/SGP4

EPOCH          = 2025-12-07T07:08:58.077024
MEAN_MOTION    = 14.06338544
ECCENTRICITY   = .0006931
INCLINATION    = 50.0114
RA_OF_ASC_NODE = 139.4936
ARG_OF_PERICENTER = 277.2992
MEAN_ANOMALY   = 82.7125

EPHEMERIS_TYPE = 0
CLASSIFICATION_TYPE = U
NORAD_CAT_ID   = 66921
ELEMENT_SET_NO = 999
REV_AT_EPOCH   = 14
BSTAR          = .77596E-5
MEAN_MOTION_DOT = -.14E-5
MEAN_MOTION_DDOT = 0

CCSDS_OMM_VERS = 2.0
CREATION_DATE  = 
ORIGINATOR     = 

OBJECT_NAME    = HULIANWANG DIGUI 14H
OBJECT_ID      = 2025-285H
CENTER_NAME    = EARTH
REF_FRAME      = TEME
TIME_SYSTEM    = UTC
MEAN_ELEMENT_THEORY = SGP/SGP4

EPOCH          = 2025-12-07T08:51:10.953792
MEAN_MOTION    = 14.06452103
ECCENTRICITY   = .0006871
INCLINATION    = 50.0078
RA_OF_ASC_NODE = 139.2001
ARG_OF_PERICENTER = 283.9824
MEAN_ANOMALY   = 76.0317

EPHEMERIS_TYPE = 0
CLASSIFICATION_TYPE = U
NORAD_CAT_ID   = 66922
ELEMENT_SET_NO = 999
REV_AT_EPOCH   = 15
BSTAR          = .83502E-4
MEAN_MOTION_DOT = -.14E-6
MEAN_MOTION_DDOT = 0

